GOES 1 (SMS-C)          
1 08366U 75100A   25066.09788422 -.00000238  00000+0  00000+0 0  9997
2 08366   5.7987 283.2450 0004012 349.8225 206.4565  1.00277082180380
GOES 2                  
1 10061U 77048A   25065.49057025 -.00000141  00000+0  00000+0 0  9999
2 10061   7.5327 297.2945 0013250  42.0478 179.2572  0.99401799 41622
GOES 3                  
1 10953U 78062A   25066.09536470 -.00000048  00000+0  00000+0 0  9995
2 10953   7.9591 302.6877 0001326 351.8498 170.9784  0.99357854123893
GOES 4                  
1 11964U 80074A   25066.72964771  .00000066  00000+0  00000+0 0  9992
2 11964   9.0012 306.4758 0032281  96.1737 249.1947  0.99229166122800
GOES 5                  
1 12472U 81049A   25065.28923514 -.00000221  00000+0  00000+0 0  9994
2 12472  10.1988 318.7779 0002965 322.4405 260.9671  1.00330228118155
GOES 6                  
1 14050U 83041A   25067.15195528 -.00000252  00000+0  00000+0 0  9990
2 14050  10.9365 324.2914 0001374 246.0614 290.7375  1.00301073211382
GOES 7                  
1 17561U 87022A   25066.96960291 -.00000156  00000+0  00000+0 0  9991
2 17561  13.3518 340.9315 0002989  34.9239 131.2912  0.99908479122320
GOES 8                  
1 23051U 94022A   25066.71470428 -.00000298  00000+0  00000+0 0  9998
2 23051  14.0296  17.1453 0004488  23.0388 171.0692  0.98907942119515
GOES 9                  
1 23581U 95025A   25065.96082830 -.00000019  00000+0  00000+0 0  9993
2 23581  13.5450  17.8693 0003581 172.7405   1.3849  0.98799200108149
GOES 10                 
1 24786U 97019A   25066.71522557 -.00000312  00000+0  00000+0 0  9991
2 24786  12.5753  24.3631 0030526 228.1826 321.3884  0.99127458101440
GOES 11                 
1 26352U 00022A   25066.98776090 -.00000005  00000+0  00000+0 0  9991
2 26352  10.8113  50.8437 0004725 246.3828 308.5317  0.99039359 90386
GOES 12                 
1 26871U 01031A   25066.75230316 -.00000262  00000+0  00000+0 0  9994
2 26871  11.3318  41.0830 0007846 294.3468  78.8444  0.99140115 86144
EWS-G1 (GOES 13)        
1 29155U 06018A   25066.90148872 -.00000151  00000+0  00000+0 0  9991
2 29155   3.3166  82.1093 0066018 261.6244 155.9799  0.98832394 38644
GOES 14                 
1 35491U 09033A   25066.09249765 -.00000081  00000+0  00000+0 0  9996
2 35491   0.4699  89.5853 0001270 176.0496 184.6821  1.00268497  1900
EWS-G2 (GOES 15)        
1 36411U 10008A   25067.12605830  .00000024  00000+0  00000+0 0  9993
2 36411   0.0733  93.0552 0004051 187.5096 352.1728  1.00270621 54950
GOES 16                 
1 41866U 16071A   25064.52961274 -.00000255  00000+0  00000+0 0  9994
2 41866   0.0850 286.8195 0001772  71.8195 280.2937  1.00269200 30405
GOES 17                 
1 43226U 18022A   25064.43308620 -.00000099  00000+0  00000+0 0  9990
2 43226   0.0168 321.2677 0001141 115.5724 138.0586  1.00271617 25726
GOES 18                 
1 51850U 22021A   25066.65823204  .00000083  00000+0  00000+0 0  9994
2 51850   0.0364 350.6631 0000245  20.2239 254.6712  1.00273036  1917
GOES 19                 
1 60133U 24119A   25064.42753125 -.00000189  00000+0  00000+0 0  9993
2 60133   0.0195 330.9160 0001990  19.4143 237.4955  1.00270263  2269
